start=new Date('2022-06-22T00:00:00.000Z').valueOf();
sats=[{"OBJECT_NAME":"STARLINK-3842","BSTAR":"-0.01036900000000","DECAY_DATE":null,"APOAPSIS":"365.382","PERIAPSIS":"363.460","TIME_SYSTEM":"UTC","MEAN_ELEMENT_THEORY":"SGP4","EPHEMERIS_TYPE":"0","SITE":"AFETR","COUNTRY_CODE":"US","ARG_OF_PERICENTER":"40.1679","CENTER_NAME":"EARTH","GP_ID":"206584672","MEAN_MOTION_DOT":"-0.01054584","REV_AT_EPOCH":"130","MEAN_MOTION_DDOT":"0.0000000000000","REF_FRAME":"TEME","TLE_LINE1":"1 52481U 22049AG  22172.91667824 -.01054584  00000-0 -10369-1 0  9993","CLASSIFICATION_TYPE":"U","LAUNCH_DATE":"2022-05-06","FILE":"3499203","ECCENTRICITY":"0.00014250","OBJECT_ID":"2022-049AG","PERIOD":"91.833","ELEMENT_SET_NO":"999","TLE_LINE2":"2 52481  53.2173  36.1702 0001425  40.1679  18.9627 15.68071796  1308","MEAN_MOTION":"15.68071796","EPOCH":"2022-06-21T22:00:00.999936","MEAN_ANOMALY":"18.9627","OBJECT_TYPE":"PAYLOAD","RCS_SIZE":"LARGE","RA_OF_ASC_NODE":"36.1702","INCLINATION":"53.2173","SEMIMAJOR_AXIS":"6742.556","NORAD_CAT_ID":"52481"},{"TIME_SYSTEM":"UTC","PERIAPSIS":"348.788","DECAY_DATE":null,"APOAPSIS":"350.810","BSTAR":"-0.00001197900000","OBJECT_NAME":"STARLINK-3813","ARG_OF_PERICENTER":"37.2405","COUNTRY_CODE":"US","SITE":"AFETR","EPHEMERIS_TYPE":"0","MEAN_ELEMENT_THEORY":"SGP4","REF_FRAME":"TEME","MEAN_MOTION_DDOT":"0.0000000000000","MEAN_MOTION_DOT":"-0.00002300","REV_AT_EPOCH":"750","GP_ID":"206559591","CENTER_NAME":"EARTH","CLASSIFICATION_TYPE":"U","TLE_LINE1":"1 52482U 22049AH  22173.00002315 -.00002300  00000-0 -11979-4 0  9992","ECCENTRICITY":"0.00015030","OBJECT_ID":"2022-049AH","FILE":"3499187","LAUNCH_DATE":"2022-05-06","TLE_LINE2":"2 52482  53.2158  35.6989 0001503  37.2405 160.3541 15.73186367  7506","MEAN_MOTION":"15.73186367","ELEMENT_SET_NO":"999","PERIOD":"91.534","SEMIMAJOR_AXIS":"6727.934","NORAD_CAT_ID":"52482","RA_OF_ASC_NODE":"35.6989","INCLINATION":"53.2158","OBJECT_TYPE":"PAYLOAD","RCS_SIZE":"MEDIUM","MEAN_ANOMALY":"160.3541","EPOCH":"2022-06-22T00:00:02.000160"},{"RCS_SIZE":"LARGE","OBJECT_TYPE":"PAYLOAD","RA_OF_ASC_NODE":"35.7051","INCLINATION":"53.2157","SEMIMAJOR_AXIS":"6727.842","NORAD_CAT_ID":"52483","EPOCH":"2022-06-22T00:00:02.000160","MEAN_ANOMALY":"154.7766","MEAN_MOTION":"15.73218793","TLE_LINE2":"2 52483  53.2157  35.7051 0001456  39.6762 154.7766 15.73218793  7501","PERIOD":"91.532","ELEMENT_SET_NO":"999","OBJECT_ID":"2022-049AJ","ECCENTRICITY":"0.00014560","LAUNCH_DATE":"2022-05-06","FILE":"3499187","CLASSIFICATION_TYPE":"U","TLE_LINE1":"1 52483U 22049AJ  22173.00002315 -.00066250  00000-0 -47095-3 0  9994","REV_AT_EPOCH":"750","MEAN_MOTION_DOT":"-0.00066250","MEAN_MOTION_DDOT":"0.0000000000000","REF_FRAME":"TEME","CENTER_NAME":"EARTH","GP_ID":"206559579","SITE":"AFETR","COUNTRY_CODE":"US","ARG_OF_PERICENTER":"39.6762","MEAN_ELEMENT_THEORY":"SGP4","EPHEMERIS_TYPE":"0","TIME_SYSTEM":"UTC","OBJECT_NAME":"STARLINK-3875","BSTAR":"-0.00047095000000","PERIAPSIS":"348.727","DECAY_DATE":null,"APOAPSIS":"350.686"},{"APOAPSIS":"365.561","DECAY_DATE":null,"PERIAPSIS":"363.382","OBJECT_NAME":"STARLINK-3887","BSTAR":"-0.01037200000000","TIME_SYSTEM":"UTC","MEAN_ELEMENT_THEORY":"SGP4","EPHEMERIS_TYPE":"0","COUNTRY_CODE":"US","ARG_OF_PERICENTER":"33.3389","SITE":"AFETR","GP_ID":"206584855","CENTER_NAME":"EARTH","REF_FRAME":"TEME","MEAN_MOTION_DOT":"-0.01054242","REV_AT_EPOCH":"130","MEAN_MOTION_DDOT":"0.0000000000000","TLE_LINE1":"1 52484U 22049AK  22172.91667824 -.01054242  00000-0 -10372-1 0  9991","CLASSIFICATION_TYPE":"U","FILE":"3499203","LAUNCH_DATE":"2022-05-06","OBJECT_ID":"2022-049AK","ECCENTRICITY":"0.00016160","ELEMENT_SET_NO":"999","PERIOD":"91.834","TLE_LINE2":"2 52484  53.2173  36.1694 0001616  33.3389  31.3157 15.68054210  1304","MEAN_MOTION":"15.68054210","EPOCH":"2022-06-21T22:00:00.999936","MEAN_ANOMALY":"31.3157","NORAD_CAT_ID":"52484","SEMIMAJOR_AXIS":"6742.606","RCS_SIZE":"LARGE","OBJECT_TYPE":"PAYLOAD","INCLINATION":"53.2173","RA_OF_ASC_NODE":"36.1694"},{"MEAN_ELEMENT_THEORY":"SGP4","EPHEMERIS_TYPE":"0","COUNTRY_CODE":"US","ARG_OF_PERICENTER":"45.6133","SITE":"AFETR","GP_ID":"206559615","CENTER_NAME":"EARTH","REF_FRAME":"TEME","MEAN_MOTION_DOT":"-0.00026694","REV_AT_EPOCH":"750","MEAN_MOTION_DDOT":"0.0000000000000","PERIAPSIS":"348.387","DECAY_DATE":null,"APOAPSIS":"351.024","OBJECT_NAME":"STARLINK-3913","BSTAR":"-0.00018620000000","TIME_SYSTEM":"UTC","ELEMENT_SET_NO":"999","PERIOD":"91.532","MEAN_MOTION":"15.73219246","TLE_LINE2":"2 52485  53.2160  35.7011 0001960  45.6133 151.3579 15.73219246  7501","EPOCH":"2022-06-22T00:00:02.000160","MEAN_ANOMALY":"151.3579","NORAD_CAT_ID":"52485","SEMIMAJOR_AXIS":"6727.840","OBJECT_TYPE":"PAYLOAD","RCS_SIZE":"MEDIUM","RA_OF_ASC_NODE":"35.7011","INCLINATION":"53.2160","TLE_LINE1":"1 52485U 22049AL  22173.00002315 -.00026694  00000-0 -18620-3 0  9996","CLASSIFICATION_TYPE":"U","FILE":"3499188","LAUNCH_DATE":"2022-05-06","OBJECT_ID":"2022-049AL","ECCENTRICITY":"0.00019600"},{"ELEMENT_SET_NO":"999","PERIOD":"91.833","MEAN_MOTION":"15.68067146","TLE_LINE2":"2 52486  53.2173  36.1739 0002091  22.2121  43.8060 15.68067146  1308","EPOCH":"2022-06-21T22:00:00.999936","MEAN_ANOMALY":"43.8060","SEMIMAJOR_AXIS":"6742.569","NORAD_CAT_ID":"52486","OBJECT_TYPE":"PAYLOAD","RCS_SIZE":"LARGE","RA_OF_ASC_NODE":"36.1739","INCLINATION":"53.2173","TLE_LINE1":"1 52486U 22049AM  22172.91667824 -.01054020  00000-0 -10362-1 0  9996","CLASSIFICATION_TYPE":"U","FILE":"3499203","LAUNCH_DATE":"2022-05-06","ECCENTRICITY":"0.00020910","OBJECT_ID":"2022-049AM","MEAN_ELEMENT_THEORY":"SGP4","EPHEMERIS_TYPE":"0","COUNTRY_CODE":"US","ARG_OF_PERICENTER":"22.2121","SITE":"AFETR","GP_ID":"206585021","CENTER_NAME":"EARTH","REF_FRAME":"TEME","MEAN_MOTION_DOT":"-0.01054020","REV_AT_EPOCH":"130","MEAN_MOTION_DDOT":"0.0000000000000","DECAY_DATE":null,"PERIAPSIS":"363.024","APOAPSIS":"365.844","OBJECT_NAME":"STARLINK-3918","BSTAR":"-0.01036200000000","TIME_SYSTEM":"UTC"},{"MEAN_MOTION":"15.73183264","TLE_LINE2":"2 52487  53.2158  35.7015 0001822  33.9847 162.3415 15.73183264  7504","ELEMENT_SET_NO":"999","PERIOD":"91.534","SEMIMAJOR_AXIS":"6727.943","NORAD_CAT_ID":"52487","INCLINATION":"53.2158","RA_OF_ASC_NODE":"35.7015","OBJECT_TYPE":"PAYLOAD","RCS_SIZE":"MEDIUM","MEAN_ANOMALY":"162.3415","EPOCH":"2022-06-22T00:00:02.000160","CLASSIFICATION_TYPE":"U","TLE_LINE1":"1 52487U 22049AN  22173.00002315  .00019333  00000-0  14195-3 0  9991","OBJECT_ID":"2022-049AN","ECCENTRICITY":"0.00018220","FILE":"3499188","LAUNCH_DATE":"2022-05-06","ARG_OF_PERICENTER":"33.9847","COUNTRY_CODE":"US","SITE":"AFETR","EPHEMERIS_TYPE":"0","MEAN_ELEMENT_THEORY":"SGP4","REF_FRAME":"TEME","MEAN_MOTION_DDOT":"0.0000000000000","REV_AT_EPOCH":"750","MEAN_MOTION_DOT":"0.00019333","GP_ID":"206559507","CENTER_NAME":"EARTH","TIME_SYSTEM":"UTC","DECAY_DATE":null,"APOAPSIS":"351.034","PERIAPSIS":"348.582","BSTAR":"0.00014195000000","OBJECT_NAME":"STARLINK-3902"},{"FILE":"3499203","LAUNCH_DATE":"2022-05-06","ECCENTRICITY":"0.00019020","OBJECT_ID":"2022-049AP","TLE_LINE1":"1 52488U 22049AP  22172.91667824 -.01054054  00000-0 -10363-1 0  9996","CLASSIFICATION_TYPE":"U","MEAN_ANOMALY":"41.1397","EPOCH":"2022-06-21T22:00:00.999936","SEMIMAJOR_AXIS":"6742.568","NORAD_CAT_ID":"52488","INCLINATION":"53.2173","RA_OF_ASC_NODE":"36.1749","RCS_SIZE":"MEDIUM","OBJECT_TYPE":"PAYLOAD","ELEMENT_SET_NO":"999","PERIOD":"91.833","TLE_LINE2":"2 52488  53.2173  36.1749 0001902  26.1400  41.1397 15.68067612  1306","MEAN_MOTION":"15.68067612","APOAPSIS":"365.715","DECAY_DATE":null,"PERIAPSIS":"363.150","BSTAR":"-0.01036300000000","OBJECT_NAME":"STARLINK-3892","TIME_SYSTEM":"UTC","GP_ID":"206584509","CENTER_NAME":"EARTH","REF_FRAME":"TEME","MEAN_MOTION_DDOT":"0.0000000000000","MEAN_MOTION_DOT":"-0.01054054","REV_AT_EPOCH":"130","EPHEMERIS_TYPE":"0","MEAN_ELEMENT_THEORY":"SGP4","ARG_OF_PERICENTER":"26.1400","COUNTRY_CODE":"US","SITE":"AFETR"},{"TIME_SYSTEM":"UTC","OBJECT_NAME":"STARLINK-3923","BSTAR":"-0.01036600000000","DECAY_DATE":null,"PERIAPSIS":"363.160","APOAPSIS":"365.745","REV_AT_EPOCH":"130","MEAN_MOTION_DOT":"-0.01054060","MEAN_MOTION_DDOT":"0.0000000000000","REF_FRAME":"TEME","CENTER_NAME":"EARTH","GP_ID":"206584673","SITE":"AFETR","COUNTRY_CODE":"US","ARG_OF_PERICENTER":"25.0289","MEAN_ELEMENT_THEORY":"SGP4","EPHEMERIS_TYPE":"0","OBJECT_ID":"2022-049AQ","ECCENTRICITY":"0.00019170","LAUNCH_DATE":"2022-05-06","FILE":"3499203","CLASSIFICATION_TYPE":"U","TLE_LINE1":"1 52489U 22049AQ  22172.91667824 -.01054060  00000-0 -10366-1 0  9997","OBJECT_TYPE":"PAYLOAD","RCS_SIZE":"MEDIUM","RA_OF_ASC_NODE":"36.1720","INCLINATION":"53.2173","NORAD_CAT_ID":"52489","SEMIMAJOR_AXIS":"6742.588","EPOCH":"2022-06-21T22:00:00.999936","MEAN_ANOMALY":"40.3076","TLE_LINE2":"2 52489  53.2173  36.1720 0001917  25.0289  40.3076 15.68060612  1303","MEAN_MOTION":"15.68060612","PERIOD":"91.833","ELEMENT_SET_NO":"999"},{"ECCENTRICITY":"0.00017150","OBJECT_ID":"2022-049AR","LAUNCH_DATE":"2022-05-06","FILE":"3499187","CLASSIFICATION_TYPE":"U","TLE_LINE1":"1 52490U 22049AR  22173.00002315 -.00021389  00000-0 -14825-3 0  9991","RA_OF_ASC_NODE":"35.6945","INCLINATION":"53.2178","OBJECT_TYPE":"PAYLOAD","RCS_SIZE":"MEDIUM","NORAD_CAT_ID":"52490","SEMIMAJOR_AXIS":"6727.848","MEAN_ANOMALY":"160.9355","EPOCH":"2022-06-22T00:00:02.000160","TLE_LINE2":"2 52490  53.2178  35.6945 0001715  41.0450 160.9355 15.73216648  7502","MEAN_MOTION":"15.73216648","PERIOD":"91.532","ELEMENT_SET_NO":"999","TIME_SYSTEM":"UTC","BSTAR":"-0.00014825000000","OBJECT_NAME":"STARLINK-3914","DECAY_DATE":null,"PERIAPSIS":"348.559","APOAPSIS":"350.867","MEAN_MOTION_DDOT":"0.0000000000000","REV_AT_EPOCH":"750","MEAN_MOTION_DOT":"-0.00021389","REF_FRAME":"TEME","CENTER_NAME":"EARTH","GP_ID":"206559481","SITE":"AFETR","ARG_OF_PERICENTER":"41.0450","COUNTRY_CODE":"US","EPHEMERIS_TYPE":"0","MEAN_ELEMENT_THEORY":"SGP4"}];
